1 24946U 97051C   19276.59702289  .00000068  00000-0  17353-4 0  9991
2 24946  86.3831 295.8105 0009197  43.4607 316.7312 14.33659089154153                    
1 33772U 97051K   19276.93516318  .00009199  00000-0  89331-3 0  9990
2 33772  86.4000 262.4144 0025069  31.7763  26.9585 14.92271154563739       
1 33773U 97051L   19276.62103386  .00000177  00000-0  51328-4 0  9997
2 33773  86.3979 293.2180 0012992  47.1756 313.0532 14.38404460558026
1 33775U 97051N   19276.62391953  .00000169  00000-0  52279-4 0  9995
2 33775  86.3637 287.1282 0015664  25.4935 111.7614 14.35087953556642         
1 33776U 97051P   19276.67860291  .00000114  00000-0  33552-4 0  9990
2 33776  86.4025 305.5473 0016378  39.1441  67.3636 14.33999550556350          
1 33777U 97051Q   19276.50073871  .00000465  00000-0  13641-3 0  9998
2 33777  86.3808 281.8723 0009433 200.0087 160.0745 14.41704752558511